[{"OBJECT_NAME":"STARLINK-36930","OBJECT_ID":"2026-040D","EPOCH":"2026-03-28T04:00:01.999584","MEAN_MOTION":15.7516303,"ECCENTRICITY":0.00014838,"INCLINATION":97.2865,"RA_OF_ASC_NODE":36.5192,"ARG_OF_PERICENTER":90.597,"MEAN_ANOMALY":269.9771,"EPHEMERIS_TYPE":0,"CLASSIFICATION_TYPE":"U","NORAD_CAT_ID":68018,"ELEMENT_SET_NO":999,"REV_AT_EPOCH":540,"BSTAR":2.6734498e-5,"MEAN_MOTION_DOT":3.855e-5,"MEAN_MOTION_DDOT":0},{"OBJECT_NAME":"STARLINK-36921","OBJECT_ID":"2026-040E","EPOCH":"2026-03-28T02:22:51.410496","MEAN_MOTION":15.75288326,"ECCENTRICITY":0.00032396,"INCLINATION":97.2851,"RA_OF_ASC_NODE":36.4606,"ARG_OF_PERICENTER":102.4092,"MEAN_ANOMALY":257.7536,"EPHEMERIS_TYPE":0,"CLASSIFICATION_TYPE":"U","NORAD_CAT_ID":68019,"ELEMENT_SET_NO":999,"REV_AT_EPOCH":425,"BSTAR":0.0013720874,"MEAN_MOTION_DOT":0.00210574,"MEAN_MOTION_DDOT":0},{"OBJECT_NAME":"STARLINK-36928","OBJECT_ID":"2026-040F","EPOCH":"2026-03-28T02:24:22.927968","MEAN_MOTION":15.75290307,"ECCENTRICITY":0.000169,"INCLINATION":97.2863,"RA_OF_ASC_NODE":36.4576,"ARG_OF_PERICENTER":107.9912,"MEAN_ANOMALY":252.1538,"EPHEMERIS_TYPE":0,"CLASSIFICATION_TYPE":"U","NORAD_CAT_ID":68020,"ELEMENT_SET_NO":999,"REV_AT_EPOCH":425,"BSTAR":0.001514052,"MEAN_MOTION_DOT":0.0023298,"MEAN_MOTION_DDOT":0},{"OBJECT_NAME":"STARLINK-36858","OBJECT_ID":"2026-040G","EPOCH":"2026-03-24T12:55:13.776960","MEAN_MOTION":15.75331784,"ECCENTRICITY":0.00016946,"INCLINATION":97.2853,"RA_OF_ASC_NODE":32.8877,"ARG_OF_PERICENTER":78.8231,"MEAN_ANOMALY":281.3225,"EPHEMERIS_TYPE":0,"CLASSIFICATION_TYPE":"U","NORAD_CAT_ID":68021,"ELEMENT_SET_NO":999,"REV_AT_EPOCH":370,"BSTAR":0.0017848498,"MEAN_MOTION_DOT":0.00276588,"MEAN_MOTION_DDOT":0},{"OBJECT_NAME":"STARLINK-36916","OBJECT_ID":"2026-040H","EPOCH":"2026-03-28T04:00:01.999584","MEAN_MOTION":15.70918791,"ECCENTRICITY":0.00013383,"INCLINATION":97.2858,"RA_OF_ASC_NODE":36.5292,"ARG_OF_PERICENTER":107.2335,"MEAN_ANOMALY":273.6932,"EPHEMERIS_TYPE":0,"CLASSIFICATION_TYPE":"U","NORAD_CAT_ID":68022,"ELEMENT_SET_NO":999,"REV_AT_EPOCH":540,"BSTAR":-0.017118927,"MEAN_MOTION_DOT":-0.01857676,"MEAN_MOTION_DDOT":0},{"OBJECT_NAME":"STARLINK-36871","OBJECT_ID":"2026-040J","EPOCH":"2026-03-28T02:20:49.444800","MEAN_MOTION":15.75271394,"ECCENTRICITY":0.00022783,"INCLINATION":97.2868,"RA_OF_ASC_NODE":36.4586,"ARG_OF_PERICENTER":123.7783,"MEAN_ANOMALY":236.37,"EPHEMERIS_TYPE":0,"CLASSIFICATION_TYPE":"U","NORAD_CAT_ID":68023,"ELEMENT_SET_NO":999,"REV_AT_EPOCH":425,"BSTAR":0.0013430442,"MEAN_MOTION_DOT":0.00205828,"MEAN_MOTION_DDOT":0},{"OBJECT_NAME":"STARLINK-36891","OBJECT_ID":"2026-040K","EPOCH":"2026-03-27T20:13:53.726016","MEAN_MOTION":15.75238981,"ECCENTRICITY":0.0001281,"INCLINATION":97.2867,"RA_OF_ASC_NODE":36.1942,"ARG_OF_PERICENTER":105.8458,"MEAN_ANOMALY":254.2948,"EPHEMERIS_TYPE":0,"CLASSIFICATION_TYPE":"U","NORAD_CAT_ID":68024,"ELEMENT_SET_NO":999,"REV_AT_EPOCH":421,"BSTAR":0.0011453359,"MEAN_MOTION_DOT":0.00174611,"MEAN_MOTION_DDOT":0},{"OBJECT_NAME":"STARLINK-36378","OBJECT_ID":"2026-040L","EPOCH":"2026-03-28T06:52:12.647136","MEAN_MOTION":15.75277202,"ECCENTRICITY":0.00013857,"INCLINATION":97.2862,"RA_OF_ASC_NODE":36.6654,"ARG_OF_PERICENTER":80.1592,"MEAN_ANOMALY":279.9829,"EPHEMERIS_TYPE":0,"CLASSIFICATION_TYPE":"U","NORAD_CAT_ID":68025,"ELEMENT_SET_NO":999,"REV_AT_EPOCH":428,"BSTAR":0.0015732594,"MEAN_MOTION_DOT":0.00242222,"MEAN_MOTION_DDOT":0},{"OBJECT_NAME":"STARLINK-36884","OBJECT_ID":"2026-040M","EPOCH":"2026-03-28T05:21:14.567328","MEAN_MOTION":15.75269891,"ECCENTRICITY":0.0001679,"INCLINATION":97.2867,"RA_OF_ASC_NODE":36.5962,"ARG_OF_PERICENTER":104.8976,"MEAN_ANOMALY":255.2475,"EPHEMERIS_TYPE":0,"CLASSIFICATION_TYPE":"U","NORAD_CAT_ID":68026,"ELEMENT_SET_NO":999,"REV_AT_EPOCH":427,"BSTAR":0.0013488116,"MEAN_MOTION_DOT":0.00206714,"MEAN_MOTION_DDOT":0},{"OBJECT_NAME":"STARLINK-36940","OBJECT_ID":"2026-040N","EPOCH":"2026-03-27T19:59:39.808032","MEAN_MOTION":15.75235329,"ECCENTRICITY":0.00015801,"INCLINATION":97.2853,"RA_OF_ASC_NODE":36.215,"ARG_OF_PERICENTER":92.9808,"MEAN_ANOMALY":267.1638,"EPHEMERIS_TYPE":0,"CLASSIFICATION_TYPE":"U","NORAD_CAT_ID":68027,"ELEMENT_SET_NO":999,"REV_AT_EPOCH":421,"BSTAR":0.0017193248,"MEAN_MOTION_DOT":0.00264956,"MEAN_MOTION_DDOT":0},{"OBJECT_NAME":"STARLINK-36253","OBJECT_ID":"2026-040P","EPOCH":"2026-03-28T04:00:01.999584","MEAN_MOTION":15.36228592,"ECCENTRICITY":0.00021304,"INCLINATION":97.2837,"RA_OF_ASC_NODE":36.0207,"ARG_OF_PERICENTER":97.4257,"MEAN_ANOMALY":156.2348,"EPHEMERIS_TYPE":0,"CLASSIFICATION_TYPE":"U","NORAD_CAT_ID":68028,"ELEMENT_SET_NO":999,"REV_AT_EPOCH":550,"BSTAR":-0.051656711,"MEAN_MOTION_DOT":-0.016558,"MEAN_MOTION_DDOT":0},{"OBJECT_NAME":"STARLINK-36944","OBJECT_ID":"2026-040Q","EPOCH":"2026-03-28T06:51:11.819808","MEAN_MOTION":15.75271916,"ECCENTRICITY":0.0001693,"INCLINATION":97.2872,"RA_OF_ASC_NODE":36.663,"ARG_OF_PERICENTER":61.0768,"MEAN_ANOMALY":299.0667,"EPHEMERIS_TYPE":0,"CLASSIFICATION_TYPE":"U","NORAD_CAT_ID":68029,"ELEMENT_SET_NO":999,"REV_AT_EPOCH":428,"BSTAR":0.0014981184,"MEAN_MOTION_DOT":0.0023027,"MEAN_MOTION_DDOT":0},{"OBJECT_NAME":"STARLINK-36942","OBJECT_ID":"2026-040R","EPOCH":"2026-03-27T20:09:49.820544","MEAN_MOTION":15.75249802,"ECCENTRICITY":0.00016733,"INCLINATION":97.2847,"RA_OF_ASC_NODE":36.201,"ARG_OF_PERICENTER":102.7561,"MEAN_ANOMALY":257.3892,"EPHEMERIS_TYPE":0,"CLASSIFICATION_TYPE":"U","NORAD_CAT_ID":68030,"ELEMENT_SET_NO":999,"REV_AT_EPOCH":421,"BSTAR":0.0012661523,"MEAN_MOTION_DOT":0.00193568,"MEAN_MOTION_DDOT":0},{"OBJECT_NAME":"STARLINK-36913","OBJECT_ID":"2026-040S","EPOCH":"2026-03-28T04:00:01.999584","MEAN_MOTION":15.65782624,"ECCENTRICITY":0.00013263,"INCLINATION":97.2852,"RA_OF_ASC_NODE":36.5312,"ARG_OF_PERICENTER":104.374,"MEAN_ANOMALY":272.7095,"EPHEMERIS_TYPE":0,"CLASSIFICATION_TYPE":"U","NORAD_CAT_ID":68031,"ELEMENT_SET_NO":999,"REV_AT_EPOCH":540,"BSTAR":-0.021094937,"MEAN_MOTION_DOT":-0.0189029,"MEAN_MOTION_DDOT":0},{"OBJECT_NAME":"STARLINK-36935","OBJECT_ID":"2026-040T","EPOCH":"2026-03-28T06:42:02.683008","MEAN_MOTION":15.75338021,"ECCENTRICITY":9.775e-5,"INCLINATION":97.2866,"RA_OF_ASC_NODE":36.6762,"ARG_OF_PERICENTER":347.3576,"MEAN_ANOMALY":12.7664,"EPHEMERIS_TYPE":0,"CLASSIFICATION_TYPE":"U","NORAD_CAT_ID":68032,"ELEMENT_SET_NO":999,"REV_AT_EPOCH":428,"BSTAR":0.0019259162,"MEAN_MOTION_DOT":0.00299349,"MEAN_MOTION_DDOT":0},{"OBJECT_NAME":"STARLINK-36947","OBJECT_ID":"2026-040U","EPOCH":"2026-03-28T06:48:08.935200","MEAN_MOTION":15.75337588,"ECCENTRICITY":0.00011513,"INCLINATION":97.285,"RA_OF_ASC_NODE":36.6697,"ARG_OF_PERICENTER":56.7874,"MEAN_ANOMALY":303.3502,"EPHEMERIS_TYPE":0,"CLASSIFICATION_TYPE":"U","NORAD_CAT_ID":68033,"ELEMENT_SET_NO":999,"REV_AT_EPOCH":428,"BSTAR":0.0021262947,"MEAN_MOTION_DOT":0.00331773,"MEAN_MOTION_DDOT":0}]
