STARLINK-36930          
1 68018U 26040D   26087.16668981  .00003855  00000+0  26734-4 0  9999
2 68018  97.2865  36.5192 0001483  90.5970 269.9771 15.75163030  5405
STARLINK-36921          
1 68019U 26040E   26087.09920614  .00210574  00000+0  13721-2 0  9994
2 68019  97.2851  36.4606 0003239 102.4092 257.7536 15.75288326  4251
STARLINK-36928          
1 68020U 26040F   26087.10026537  .00232980  00000+0  15141-2 0  9992
2 68020  97.2863  36.4576 0001690 107.9912 252.1538 15.75290307  4255
STARLINK-36858          
1 68021U 26040G   26083.53835390  .00276588  00000+0  17848-2 0  9999
2 68021  97.2853  32.8877 0001694  78.8231 281.3225 15.75331784  3704
STARLINK-36916          
1 68022U 26040H   26087.16668981 -.01857676  00000+0 -17119-1 0  9999
2 68022  97.2858  36.5292 0001338 107.2335 273.6932 15.70918791  5401
STARLINK-36871          
1 68023U 26040J   26087.09779450  .00205828  00000+0  13430-2 0  9992
2 68023  97.2868  36.4586 0002278 123.7783 236.3700 15.75271394  4259
STARLINK-36891          
1 68024U 26040K   26086.84298294  .00174611  00000+0  11453-2 0  9995
2 68024  97.2867  36.1942 0001281 105.8458 254.2948 15.75238981  4219
STARLINK-36378          
1 68025U 26040L   26087.28625749  .00242222  00000+0  15733-2 0  9993
2 68025  97.2862  36.6654 0001385  80.1592 279.9829 15.75277202  4287
STARLINK-36884          
1 68026U 26040M   26087.22308527  .00206714  00000+0  13488-2 0  9991
2 68026  97.2867  36.5962 0001679 104.8976 255.2475 15.75269891  4278
STARLINK-36940          
1 68027U 26040N   26086.83309963  .00264956  00000+0  17193-2 0  9992
2 68027  97.2853  36.2150 0001580  92.9808 267.1638 15.75235329  4218
STARLINK-36253          
1 68028U 26040P   26087.16668981 -.01655800  00000+0 -51657-1 0  9995
2 68028  97.2837  36.0207 0002130  97.4257 156.2348 15.36228592  5502
STARLINK-36944          
1 68029U 26040Q   26087.28555347  .00230270  00000+0  14981-2 0  9997
2 68029  97.2872  36.6630 0001693  61.0768 299.0667 15.75271916  4280
STARLINK-36942          
1 68030U 26040R   26086.84015996  .00193568  00000+0  12662-2 0  9993
2 68030  97.2847  36.2010 0001673 102.7561 257.3892 15.75249802  4213
STARLINK-36913          
1 68031U 26040S   26087.16668981 -.01890290  00000+0 -21095-1 0  9996
2 68031  97.2852  36.5312 0001326 104.3740 272.7095 15.65782624  5401
STARLINK-36935          
1 68032U 26040T   26087.27919772  .00299349  00000+0  19259-2 0  9991
2 68032  97.2866  36.6762 0000977 347.3576  12.7664 15.75338021  4282
STARLINK-36947          
1 68033U 26040U   26087.28343675  .00331773  00000+0  21263-2 0  9992
2 68033  97.2850  36.6697 0001151  56.7874 303.3502 15.75337588  4287
